CCSDS_OMM_VERS = 2.0
CREATION_DATE  = 
ORIGINATOR     = 

OBJECT_NAME    = STARLINK-37069
OBJECT_ID      = 2026-049S
CENTER_NAME    = EARTH
REF_FRAME      = TEME
TIME_SYSTEM    = UTC
MEAN_ELEMENT_THEORY = SGP/SGP4

EPOCH          = 2026-03-23T22:00:00.999936
MEAN_MOTION    = 15.87227282
ECCENTRICITY   = .0001568
INCLINATION    = 97.2759
RA_OF_ASC_NODE = 102.8406
ARG_OF_PERICENTER = 76.3759
MEAN_ANOMALY   = 24.7279

EPHEMERIS_TYPE = 0
CLASSIFICATION_TYPE = U
NORAD_CAT_ID   = 68158
ELEMENT_SET_NO = 999
REV_AT_EPOCH   = 290
BSTAR          = -.86257121E-2
MEAN_MOTION_DOT = -.1954595E-1
MEAN_MOTION_DDOT = 0

CCSDS_OMM_VERS = 2.0
CREATION_DATE  = 
ORIGINATOR     = 

OBJECT_NAME    = STARLINK-37053
OBJECT_ID      = 2026-049T
CENTER_NAME    = EARTH
REF_FRAME      = TEME
TIME_SYSTEM    = UTC
MEAN_ELEMENT_THEORY = SGP/SGP4

EPOCH          = 2026-03-23T22:00:00.999936
MEAN_MOTION    = 15.87338198
ECCENTRICITY   = .0001574
INCLINATION    = 97.2758
RA_OF_ASC_NODE = 102.8418
ARG_OF_PERICENTER = 70.4798
MEAN_ANOMALY   = 34.3873

EPHEMERIS_TYPE = 0
CLASSIFICATION_TYPE = U
NORAD_CAT_ID   = 68159
ELEMENT_SET_NO = 999
REV_AT_EPOCH   = 290
BSTAR          = -.86465467E-2
MEAN_MOTION_DOT = -.1968101E-1
MEAN_MOTION_DDOT = 0

CCSDS_OMM_VERS = 2.0
CREATION_DATE  = 
ORIGINATOR     = 

OBJECT_NAME    = STARLINK-36306
OBJECT_ID      = 2026-049U
CENTER_NAME    = EARTH
REF_FRAME      = TEME
TIME_SYSTEM    = UTC
MEAN_ELEMENT_THEORY = SGP/SGP4

EPOCH          = 2026-03-23T22:00:00.999936
MEAN_MOTION    = 15.87456256
ECCENTRICITY   = .0001532
INCLINATION    = 97.2749
RA_OF_ASC_NODE = 102.8429
ARG_OF_PERICENTER = 73.8501
MEAN_ANOMALY   = 34.6798

EPHEMERIS_TYPE = 0
CLASSIFICATION_TYPE = U
NORAD_CAT_ID   = 68160
ELEMENT_SET_NO = 999
REV_AT_EPOCH   = 291
BSTAR          = -.85854643E-2
MEAN_MOTION_DOT = -.1965936E-1
MEAN_MOTION_DDOT = 0

CCSDS_OMM_VERS = 2.0
CREATION_DATE  = 
ORIGINATOR     = 

OBJECT_NAME    = STARLINK-37057
OBJECT_ID      = 2026-049V
CENTER_NAME    = EARTH
REF_FRAME      = TEME
TIME_SYSTEM    = UTC
MEAN_ELEMENT_THEORY = SGP/SGP4

EPOCH          = 2026-03-23T22:00:00.999936
MEAN_MOTION    = 15.87071675
ECCENTRICITY   = .00015863
INCLINATION    = 97.2760
RA_OF_ASC_NODE = 102.8389
ARG_OF_PERICENTER = 74.4140
MEAN_ANOMALY   = 23.2165

EPHEMERIS_TYPE = 0
CLASSIFICATION_TYPE = U
NORAD_CAT_ID   = 68161
ELEMENT_SET_NO = 999
REV_AT_EPOCH   = 290
BSTAR          = -.86484071E-2
MEAN_MOTION_DOT = -.1901899E-1
MEAN_MOTION_DDOT = 0

CCSDS_OMM_VERS = 2.0
CREATION_DATE  = 
ORIGINATOR     = 

OBJECT_NAME    = STARLINK-37013
OBJECT_ID      = 2026-049W
CENTER_NAME    = EARTH
REF_FRAME      = TEME
TIME_SYSTEM    = UTC
MEAN_ELEMENT_THEORY = SGP/SGP4

EPOCH          = 2026-03-23T22:00:00.999936
MEAN_MOTION    = 15.87773849
ECCENTRICITY   = .0001698
INCLINATION    = 97.2746
RA_OF_ASC_NODE = 102.8502
ARG_OF_PERICENTER = 74.6402
MEAN_ANOMALY   = 49.6807

EPHEMERIS_TYPE = 0
CLASSIFICATION_TYPE = U
NORAD_CAT_ID   = 68162
ELEMENT_SET_NO = 999
REV_AT_EPOCH   = 290
BSTAR          = -.86868063E-2
MEAN_MOTION_DOT = -.2013695E-1
MEAN_MOTION_DDOT = 0

CCSDS_OMM_VERS = 2.0
CREATION_DATE  = 
ORIGINATOR     = 

OBJECT_NAME    = STARLINK-36958
OBJECT_ID      = 2026-049X
CENTER_NAME    = EARTH
REF_FRAME      = TEME
TIME_SYSTEM    = UTC
MEAN_ELEMENT_THEORY = SGP/SGP4

EPOCH          = 2026-03-23T22:00:00.999936
MEAN_MOTION    = 15.87570453
ECCENTRICITY   = .00016013
INCLINATION    = 97.2750
RA_OF_ASC_NODE = 102.8474
ARG_OF_PERICENTER = 70.8744
MEAN_ANOMALY   = 45.8723

EPHEMERIS_TYPE = 0
CLASSIFICATION_TYPE = U
NORAD_CAT_ID   = 68163
ELEMENT_SET_NO = 999
REV_AT_EPOCH   = 290
BSTAR          = -.87095119E-2
MEAN_MOTION_DOT = -.2000511E-1
MEAN_MOTION_DDOT = 0

CCSDS_OMM_VERS = 2.0
CREATION_DATE  = 
ORIGINATOR     = 

OBJECT_NAME    = STARLINK-37002
OBJECT_ID      = 2026-049Y
CENTER_NAME    = EARTH
REF_FRAME      = TEME
TIME_SYSTEM    = UTC
MEAN_ELEMENT_THEORY = SGP/SGP4

EPOCH          = 2026-03-23T22:00:00.999936
MEAN_MOTION    = 15.87500649
ECCENTRICITY   = .00015992
INCLINATION    = 97.2755
RA_OF_ASC_NODE = 102.8455
ARG_OF_PERICENTER = 74.4022
MEAN_ANOMALY   = 38.3618

EPHEMERIS_TYPE = 0
CLASSIFICATION_TYPE = U
NORAD_CAT_ID   = 68164
ELEMENT_SET_NO = 999
REV_AT_EPOCH   = 290
BSTAR          = -.87048208E-2
MEAN_MOTION_DOT = -.1993566E-1
MEAN_MOTION_DDOT = 0

CCSDS_OMM_VERS = 2.0
CREATION_DATE  = 
ORIGINATOR     = 

OBJECT_NAME    = STARLINK-36971
OBJECT_ID      = 2026-049Z
CENTER_NAME    = EARTH
REF_FRAME      = TEME
TIME_SYSTEM    = UTC
MEAN_ELEMENT_THEORY = SGP/SGP4

EPOCH          = 2026-03-23T22:00:00.999936
MEAN_MOTION    = 15.87681204
ECCENTRICITY   = .00017154
INCLINATION    = 97.2748
RA_OF_ASC_NODE = 102.8490
ARG_OF_PERICENTER = 70.0646
MEAN_ANOMALY   = 50.3907

EPHEMERIS_TYPE = 0
CLASSIFICATION_TYPE = U
NORAD_CAT_ID   = 68165
ELEMENT_SET_NO = 999
REV_AT_EPOCH   = 290
BSTAR          = -.86799133E-2
MEAN_MOTION_DOT = -.2004301E-1
MEAN_MOTION_DDOT = 0

CCSDS_OMM_VERS = 2.0
CREATION_DATE  = 
ORIGINATOR     = 

OBJECT_NAME    = STARLINK-36273
OBJECT_ID      = 2026-049AA
CENTER_NAME    = EARTH
REF_FRAME      = TEME
TIME_SYSTEM    = UTC
MEAN_ELEMENT_THEORY = SGP/SGP4

EPOCH          = 2026-03-23T22:00:00.999936
MEAN_MOTION    = 15.87874208
ECCENTRICITY   = .00015853
INCLINATION    = 97.2745
RA_OF_ASC_NODE = 102.8532
ARG_OF_PERICENTER = 77.6057
MEAN_ANOMALY   = 50.4431

EPHEMERIS_TYPE = 0
CLASSIFICATION_TYPE = U
NORAD_CAT_ID   = 68166
ELEMENT_SET_NO = 999
REV_AT_EPOCH   = 291
BSTAR          = -.86091414E-2
MEAN_MOTION_DOT = -.2006622E-1
MEAN_MOTION_DDOT = 0

CCSDS_OMM_VERS = 2.0
CREATION_DATE  = 
ORIGINATOR     = 

OBJECT_NAME    = STARLINK-36969
OBJECT_ID      = 2026-050A
CENTER_NAME    = EARTH
REF_FRAME      = TEME
TIME_SYSTEM    = UTC
MEAN_ELEMENT_THEORY = SGP/SGP4

EPOCH          = 2026-03-19T13:41:02.541984
MEAN_MOTION    = 15.97343210
ECCENTRICITY   = .00004881
INCLINATION    = 53.1618
RA_OF_ASC_NODE = 232.5443
ARG_OF_PERICENTER = 318.1927
MEAN_ANOMALY   = 41.9065

EPHEMERIS_TYPE = 0
CLASSIFICATION_TYPE = U
NORAD_CAT_ID   = 68167
ELEMENT_SET_NO = 999
REV_AT_EPOCH   = 203
BSTAR          = -.16788093E-2
MEAN_MOTION_DOT = -.762286E-2
MEAN_MOTION_DDOT = .19811918E-3

CCSDS_OMM_VERS = 2.0
CREATION_DATE  = 
ORIGINATOR     = 

OBJECT_NAME    = STARLINK-36984
OBJECT_ID      = 2026-050B
CENTER_NAME    = EARTH
REF_FRAME      = TEME
TIME_SYSTEM    = UTC
MEAN_ELEMENT_THEORY = SGP/SGP4

EPOCH          = 2026-03-19T13:40:45.953184
MEAN_MOTION    = 15.97468217
ECCENTRICITY   = .0000565
INCLINATION    = 53.1620
RA_OF_ASC_NODE = 232.5441
ARG_OF_PERICENTER = 333.0752
MEAN_ANOMALY   = 27.0248

EPHEMERIS_TYPE = 0
CLASSIFICATION_TYPE = U
NORAD_CAT_ID   = 68168
ELEMENT_SET_NO = 999
REV_AT_EPOCH   = 203
BSTAR          = -.16463E-2
MEAN_MOTION_DOT = -.752821E-2
MEAN_MOTION_DDOT = .194E-3

CCSDS_OMM_VERS = 2.0
CREATION_DATE  = 
ORIGINATOR     = 

OBJECT_NAME    = STARLINK-37077
OBJECT_ID      = 2026-050C
CENTER_NAME    = EARTH
REF_FRAME      = TEME
TIME_SYSTEM    = UTC
MEAN_ELEMENT_THEORY = SGP/SGP4

EPOCH          = 2026-03-19T13:40:26.349024
MEAN_MOTION    = 15.97622802
ECCENTRICITY   = .0000745
INCLINATION    = 53.1619
RA_OF_ASC_NODE = 232.5425
ARG_OF_PERICENTER = 335.0992
MEAN_ANOMALY   = 25.0002

EPHEMERIS_TYPE = 0
CLASSIFICATION_TYPE = U
NORAD_CAT_ID   = 68169
ELEMENT_SET_NO = 999
REV_AT_EPOCH   = 203
BSTAR          = -.16046E-2
MEAN_MOTION_DOT = -.740191E-2
MEAN_MOTION_DDOT = .18853E-3

