STARLINK-37069          
1 68158U 26049S   26082.91667824 -.01954595  00000+0 -86257-2 0  9999
2 68158  97.2759 102.8406 0001568  76.3759  24.7279 15.87227282  2903
STARLINK-37053          
1 68159U 26049T   26082.91667824 -.01968101  00000+0 -86465-2 0  9999
2 68159  97.2758 102.8418 0001574  70.4798  34.3873 15.87338198  2907
STARLINK-36306          
1 68160U 26049U   26082.91667824 -.01965936  00000+0 -85855-2 0  9996
2 68160  97.2749 102.8429 0001532  73.8501  34.6798 15.87456256  2910
STARLINK-37057          
1 68161U 26049V   26082.91667824 -.01901899  00000+0 -86484-2 0  9994
2 68161  97.2760 102.8389 0001586  74.4140  23.2165 15.87071675  2903
STARLINK-37013          
1 68162U 26049W   26082.91667824 -.02013695  00000+0 -86868-2 0  9990
2 68162  97.2746 102.8502 0001698  74.6402  49.6807 15.87773849  2909
STARLINK-36958          
1 68163U 26049X   26082.91667824 -.02000511  00000+0 -87095-2 0  9997
2 68163  97.2750 102.8474 0001601  70.8744  45.8723 15.87570453  2905
STARLINK-37002          
1 68164U 26049Y   26082.91667824 -.01993566  00000+0 -87048-2 0  9996
2 68164  97.2755 102.8455 0001599  74.4022  38.3618 15.87500649  2905
STARLINK-36971          
1 68165U 26049Z   26082.91667824 -.02004301  00000+0 -86799-2 0  9990
2 68165  97.2748 102.8490 0001715  70.0646  50.3907 15.87681204  2903
STARLINK-36273          
1 68166U 26049AA  26082.91667824 -.02006622  00000+0 -86091-2 0  9994
2 68166  97.2745 102.8532 0001585  77.6057  50.4431 15.87874208  2914
STARLINK-36969          
1 68167U 26050A   26078.57016831 -.00762286  19812-3 -16788-2 0  9994
2 68167  53.1618 232.5443 0000488 318.1927  41.9065 15.97343210  2033
STARLINK-36984          
1 68168U 26050B   26078.56997631 -.00752821  19400-3 -16463-2 0  9997
2 68168  53.1620 232.5441 0000565 333.0752  27.0248 15.97468217  2036
STARLINK-37077          
1 68169U 26050C   26078.56974941 -.00740191  18853-3 -16046-2 0  9992
2 68169  53.1619 232.5425 0000745 335.0992  25.0002 15.97622802  2033
